SPACEMOBILE-004         
1 61049U 24163E   26193.40140888  .00012717  00000+0  58302-3 0  9998
2 61049  52.9682 192.9673 0006853 216.7757 143.2768 15.20795560101607
SZ-21 MODULE            
1 66515U 25246C   26194.23468587  .00036875  00000+0  20511-3 0  9997
2 66515  41.4707 144.8204 0007886 207.7772 152.2653 15.78673057 37858
SPACEMOBILE-006         
1 67232U 25309A   26194.30235536  .00000441  00000+0  36381-4 0  9991
2 67232  52.9935 212.0060 0010274 209.1142 150.9280 15.18650625 30567
SPACEMOBILE-008         
1 69589U 26139A   26194.23693320 -.00000117  00000+0  10367-4 0  9998
2 69589  52.9945 144.2981 0004990  51.8250 308.3190 15.12800584  3927
SPACEMOBILE-009         
1 69590U 26139B   26194.30482759 -.00000104  00000+0  11165-4 0  9993
2 69590  52.9936 144.0042 0005238  47.8586 312.2849 15.12693917  3934
SPACEMOBILE-010         
1 69591U 26139C   26194.24165291 -.00000028  00000+0  15486-4 0  9991
2 69591  52.9943 144.3248 0005156  39.4417 320.6949 15.12525408  3936
